{"epoch":1784710044,"count":18256,"objects":[{"id":"69749","name":"STARLINK-37987","type":"PAYLOAD","l1":"1 69749U 26150L   26202.12031902  .00167749  00000-0  11010-2 0  9998","l2":"2 69749  97.2844  40.7701 0000870 101.6219 258.5144 15.75244793  4252"},{"id":"69750","name":"STARLINK-38037","type":"PAYLOAD","l1":"1 69750U 26150M   26202.58335648 -.00036778  00000-0 -24663-3 0  9992","l2":"2 69750  97.2849  41.3301 0001123  83.4067 190.6346 15.75203450  4325"},{"id":"69751","name":"STARLINK-38049","type":"PAYLOAD","l1":"1 69751U 26150N   26202.52813423  .00244041  00000-0  12339-2 0  9997","l2":"2 69751  97.2842  41.2882 0000716 115.7872 244.3470 15.80914458  4320"},{"id":"69752","name":"STARLINK-38029","type":"PAYLOAD","l1":"1 69752U 26150P   26202.48489872  .00289235  00000-0  18662-2 0  9999","l2":"2 69752  97.2861  41.1938 0001202  99.6686 260.4715 15.75300434  4314"},{"id":"69753","name":"STARLINK-37965","type":"PAYLOAD","l1":"1 69753U 26150Q   26202.49160479  .00270860  00000-0  17525-2 0  9991","l2":"2 69753  97.2850  41.1842 0000988 101.1794 258.9583 15.75286398  4313"},{"id":"69754","name":"STARLINK-38048","type":"PAYLOAD","l1":"1 69754U 26150R   26202.01560313  .00246892  00000-0  12498-2 0  9993","l2":"2 69754  97.2835  40.7598 0001224  66.4308 293.7089 15.80881778  4247"},{"id":"69755","name":"STARLINK-38006","type":"PAYLOAD","l1":"1 69755U 26150S   26202.48242785  .00265936  00000-0  17215-2 0  9997","l2":"2 69755  97.2863  41.1970 0000629 107.2624 252.8710 15.75288420  4315"},{"id":"69756","name":"STARLINK-38036","type":"PAYLOAD","l1":"1 69756U 26150T   26202.53925202  .00304608  00000-0  19614-2 0  9991","l2":"2 69756  97.2855  41.2742 0000973 139.9870 220.1467 15.75303792  4320"},{"id":"69757","name":"STARLINK-38058","type":"PAYLOAD","l1":"1 69757U 26150U   26202.58335648 -.00062428  00000-0 -42025-3 0  9992","l2":"2 69757  97.2847  41.3466 0001408  76.5026 231.5295 15.75216060  4325"},{"id":"69758","name":"STARLINK-38066","type":"PAYLOAD","l1":"1 69758U 26150V   26202.58335648 -.00048257  00000-0 -32421-3 0  9996","l2":"2 69758  97.2841  41.3566 0001542  82.6918 249.3408 15.75209556  4323"},{"id":"69759","name":"STARLINK-38035","type":"PAYLOAD","l1":"1 69759U 26150W   26202.01098365  .00330113  00000-0  16477-2 0  9992","l2":"2 69759  97.2848  40.7686 0001464  32.1537 327.9821 15.80976666  4249"},{"id":"69760","name":"STARLINK-38056","type":"PAYLOAD","l1":"1 69760U 26150X   26202.51393165  .00278481  00000-0  14023-2 0  9999","l2":"2 69760  97.2846  41.3085 0001980 113.3707 246.7770 15.80915261  4327"},{"id":"69761","name":"STARLINK-38069","type":"PAYLOAD","l1":"1 69761U 26150Y   26202.58335648 -.00035682  00000-0 -23925-3 0  9997","l2":"2 69761  97.2848  41.3628 0001309  70.1500 273.8853 15.75199841  4324"},{"id":"69762","name":"STARLINK-38019","type":"PAYLOAD","l1":"1 69762U 26150Z   26202.60877910  .00121903  00000-0  80546-3 0  9996","l2":"2 69762  97.2851  41.3310 0001091  78.2654 281.8734 15.75221404  4333"},{"id":"69763","name":"KUIPER-00258","type":"PAYLOAD","l1":"1 69763U 26151A   26202.58273475  .00019726  00000-0  58542-3 0  9991","l2":"2 69763  51.8687 149.7823 0011032 192.3011 167.7707 15.34751256  2990"},{"id":"69764","name":"KUIPER-00526","type":"PAYLOAD","l1":"1 69764U 26151B   26202.49274840 -.00218807  00000-0 -61633-2 0  9996","l2":"2 69764  51.8765 149.9454 0005419 187.9037 172.1865 15.36735088  2981"},{"id":"69765","name":"KUIPER-00558","type":"PAYLOAD","l1":"1 69765U 26151C   26202.58335648 -.01110428  00000-0 -41816-1 0  9992","l2":"2 69765  51.8804 149.7419 0006682 175.8580 207.4252 15.29512830  3609"},{"id":"69766","name":"KUIPER-00569","type":"PAYLOAD","l1":"1 69766U 26151D   26202.55573743  .00111962  00000-0  29881-2 0  9990","l2":"2 69766  51.8781 149.6202 0004188 123.0695 237.0694 15.37235983  2994"},{"id":"69767","name":"KUIPER-00589","type":"PAYLOAD","l1":"1 69767U 26151E   26202.58335648 -.00413563  00000-0 -12537-1 0  9997","l2":"2 69767  51.8758 149.5099 0005244 159.9301 335.8991 15.35268666  3639"},{"id":"69768","name":"KUIPER-00598","type":"PAYLOAD","l1":"1 69768U 26151F   26202.32327070 -.00009314  00000-0 -26430-3 0  9994","l2":"2 69768  51.8644 151.0384 0013588 180.2651 179.8330 15.34306434  2956"},{"id":"69769","name":"KUIPER-00604","type":"PAYLOAD","l1":"1 69769U 26151G   26202.54600838  .00020995  00000-0  55532-3 0  9996","l2":"2 69769  51.8795 149.5551 0002658 124.3751 235.7488 15.38353789  2997"},{"id":"69770","name":"KUIPER-00609","type":"PAYLOAD","l1":"1 69770U 26151H   26202.47592696  .00021570  00000-0  56302-3 0  9998","l2":"2 69770  51.8802 149.8366 0001396  51.1562 308.9549 15.38746070  2989"},{"id":"69771","name":"KUIPER-00611","type":"PAYLOAD","l1":"1 69771U 26151J   26202.34848881  .00013251  00000-0  35240-3 0  9990","l2":"2 69771  51.8802 150.4778 0001442 109.7062 250.4081 15.38550131  2963"},{"id":"69772","name":"KUIPER-00612","type":"PAYLOAD","l1":"1 69772U 26151K   26202.54973529  .00014015  00000-0  37820-3 0  9996","l2":"2 69772  51.8788 149.5808 0003711 135.4046 224.7240 15.38043835  2991"},{"id":"69773","name":"KUIPER-00614","type":"PAYLOAD","l1":"1 69773U 26151L   26202.35220419  .00021275  00000-0  56436-3 0  9999","l2":"2 69773  51.8795 150.5044 0002506 139.5848 220.5326 15.38255886  2967"},{"id":"69774","name":"KUIPER-00615","type":"PAYLOAD","l1":"1 69774U 26151M   26202.58335648  .00008172  00000-0  24219-3 0  9991","l2":"2 69774  51.8777 149.5281 0006299 168.2325 326.5799 15.35724285  1838"},{"id":"69775","name":"KUIPER-00616","type":"PAYLOAD","l1":"1 69775U 26151N   26202.47994501  .00022149  00000-0  58361-3 0  9994","l2":"2 69775  51.8784 149.8648 0002566 137.2660 222.8528 15.38437420  2988"},{"id":"69776","name":"KUIPER-00617","type":"PAYLOAD","l1":"1 69776U 26151P   26202.35652007  .00011569  00000-0  31575-3 0  9996","l2":"2 69776  51.8796 150.5344 0003891 154.2409 205.8772 15.37881422  2960"},{"id":"69777","name":"KUIPER-00619","type":"PAYLOAD","l1":"1 69777U 26151Q   26202.47713473  .00022184  00000-0  58044-3 0  9990","l2":"2 69777  51.8801 149.8415 0001796  81.3602 278.7589 15.38653535  2985"},{"id":"69778","name":"KUIPER-00621","type":"PAYLOAD","l1":"1 69778U 26151R   26202.41511207  .00019231  00000-0  50942-3 0  9994","l2":"2 69778  51.8800 150.1787 0001879 127.8496 232.2662 15.38367779  2979"}]}